HULIANWANG DIGUI 12A    
1 65995U 25231A   25317.94083907  .00000186  00000+0  23335-3 0  9998
2 65995  50.0063 240.2168 0001084 209.5871 150.4970 13.98297035  4061
HULIANWANG DIGUI 12B    
1 65996U 25231B   25319.44868542  .00000082  00000+0  16744-3 0  9993
2 65996  49.9986 234.2094 0000488 281.5190  78.5656 13.95969682  4270
HULIANWANG DIGUI 12C    
1 65997U 25231C   25319.29917741  .00000096  00000+0  17688-3 0  9996
2 65997  50.0028 234.7370 0000898 302.3995  57.6820 13.96263240  4250
HULIANWANG DIGUI 12D    
1 65998U 25231D   25319.50610426  .00000089  00000+0  17186-3 0  9996
2 65998  49.9992 233.8467 0000779 354.9435   5.1458 13.96169180  4281
HULIANWANG DIGUI 12E    
1 65999U 25231E   25319.29756713  .00000084  00000+0  16734-3 0  9996
2 65999  50.0012 234.7495 0000864 344.9749  15.1126 13.96557801  4252
HULIANWANG DIGUI 12F    
1 66000U 25231F   25317.13850768  .00000180  00000+0  22502-3 0  9993
2 66000  50.0078 243.3316 0000357  29.9054 330.1869 13.99417685  3950
HULIANWANG DIGUI 12G    
1 66001U 25231G   25319.29334225  .00000145  00000+0  20949-3 0  9992
2 66001  50.0020 234.7292 0000372 313.0746  47.0124 13.97017285  4259
HULIANWANG DIGUI 12H    
1 66002U 25231H   25319.29549705  .00000035  00000+0  13090-3 0  9991
2 66002  50.0059 234.7535 0000627 296.2247  63.8590 13.96939935  4250
HULIANWANG DIGUI 12J    
1 66003U 25231J   25317.85921653  .00000129  00000+0  19051-3 0  9995
2 66003  50.0069 240.4833 0001321 337.1202  22.9641 13.99383307  4055
CZ-8A R/B               
1 66004U 25231K   25319.43788211  .00000168  00000+0  11842-3 0  9996
2 66004  50.0034 228.6532 0116670 190.9851 168.8513 14.30039801  4355
STARLINK-34849          
1 66005U 25232A   25318.30006408  .00059962  00000+0  14977-2 0  9991
2 66005  53.1614 281.6805 0001257  82.1062 278.0086 15.39610388  5733
STARLINK-35336          
1 66006U 25232B   25319.50003471 -.00085226  00000+0 -21412-2 0  9998
2 66006  53.1581 275.6657 0001322  94.0133 261.1697 15.39666369  5167
